<?xml version="1.0" encoding="UTF-8"?>
<kml xmlns="http://www.opengis.net/kml/2.2" xmlns:gx="http://www.google.com/kml/ext/2.2" xmlns:kml="http://www.opengis.net/kml/2.2" xmlns:atom="http://www.w3.org/2005/Atom">
<Document id="document">
	<name>ucsd</name>
	<gx:CascadingStyle kml:id="__managed_style_00C281B315409EB57F93_highlight">
		<styleUrl>https://earth.google.com/balloon_components/base/1.1.0.0/card_template.kml#main</styleUrl>
		<Style>
			<IconStyle>
				<scale>1.2</scale>
				<Icon>
					<href>https://earth.google.com/earth/document/icon?color=1976d2&amp;id=2000&amp;scale=4</href>
				</Icon>
				<hotSpot x="64" y="128" xunits="pixels" yunits="insetPixels"/>
			</IconStyle>
			<LabelStyle>
			</LabelStyle>
			<LineStyle>
				<color>ff2dc0fb</color>
				<width>3</width>
			</LineStyle>
			<PolyStyle>
				<color>40ffffff</color>
			</PolyStyle>
			<BalloonStyle>
			</BalloonStyle>
		</Style>
	</gx:CascadingStyle>
	<gx:CascadingStyle kml:id="__managed_style_00C281B315409EB57F93_normal">
		<styleUrl>https://earth.google.com/balloon_components/base/1.1.0.0/card_template.kml#main</styleUrl>
		<Style>
			<IconStyle>
				<Icon>
					<href>https://earth.google.com/earth/document/icon?color=1976d2&amp;id=2000&amp;scale=4</href>
				</Icon>
				<hotSpot x="64" y="128" xunits="pixels" yunits="insetPixels"/>
			</IconStyle>
			<LabelStyle>
			</LabelStyle>
			<LineStyle>
				<color>ff2dc0fb</color>
				<width>2</width>
			</LineStyle>
			<PolyStyle>
				<color>40ffffff</color>
			</PolyStyle>
			<BalloonStyle>
			</BalloonStyle>
		</Style>
	</gx:CascadingStyle>
	<StyleMap id="__managed_style_00C281B315409EB57F93">
		<Pair>
			<key>normal</key>
			<styleUrl>#__managed_style_00C281B315409EB57F93_normal</styleUrl>
		</Pair>
		<Pair>
			<key>highlight</key>
			<styleUrl>#__managed_style_00C281B315409EB57F93_highlight</styleUrl>
		</Pair>
	</StyleMap>
	<Placemark id="066D6E0797409EB57F76">
		<name>ucsd</name>
		<LookAt>
			<longitude>-117.2623353441492</longitude>
			<latitude>32.87251103082517</latitude>
			<altitude>-2.906213970443077</altitude>
			<heading>359.9999991404968</heading>
			<tilt>0</tilt>
			<gx:fovy>35</gx:fovy>
			<range>16354.55170132919</range>
			<altitudeMode>absolute</altitudeMode>
		</LookAt>
		<styleUrl>#__managed_style_00C281B315409EB57F93</styleUrl>
		<Polygon>
			<outerBoundaryIs>
				<LinearRing>
					<coordinates>
						-117.2519814544273,32.87259500781931,0 -117.2447056322593,32.867139667945,0 -117.2252508669283,32.86690781916311,0 -117.2215133298681,32.87079402471512,0 -117.2094703136886,32.87817174138164,0 -117.2170797731963,32.89061924468669,0 -117.2213370838967,32.897317562152,0 -117.2284850952222,32.90038275737337,0 -117.2549379402457,32.90131195362402,0 -117.2638268395303,32.89037602248715,0 -117.2519814544273,32.87259500781931,0 
					</coordinates>
				</LinearRing>
			</outerBoundaryIs>
		</Polygon>
	</Placemark>
</Document>
</kml>
